STARLINK-3276           
1 50189U 21125AK  26068.90295688  .00029472  00000+0  16874-2 0  9994
2 50189  53.2144 247.2888 0004579 141.1703 218.9620 15.12414704236687
PIESAT D                
1 56156U 23047D   26068.57334559  .00005148  00000+0  28476-3 0  9999
2 56156  97.5049 257.1462 0001784  95.5605 264.5831 15.14301886162720
